{"type": "FeatureCollection", "features": [ {"type": "Feature", "properties": {"norad_id": 34547, "name": "COSMOS 2251 DEB", "group": "cosmos-2251-debris", "lat": 32.03779934092432, "lon": -104.91891423053227, "alt_km": 639.6941373937752, "timestamp": "2025-12-20T14:38:02.363605+00:00", "meta": {"OBJECT_NAME": "COSMOS 2251 DEB", "OBJECT_ID": "1993-036UH", "EPOCH": "2025-12-18T22:50:15.370656", "MEAN_MOTION": 14.72476564, "ECCENTRICITY": 0.00166938, "INCLINATION": 74.0316, "RA_OF_ASC_NODE": 88.6306, "ARG_OF_PERICENTER": 167.5365, "MEAN_ANOMALY": 192.6223, "EPHEMERIS_TYPE": 0, "CLASSIFICATION_TYPE": "U", "NORAD_CAT_ID": 34547, "ELEMENT_SET_NO": 999, "REV_AT_EPOCH": 88613, "BSTAR": 0.0013141249, "MEAN_MOTION_DOT": 8.336e-05, "MEAN_MOTION_DDOT": 0}, "tle": {"line1": "1 34547U 93036UH  25352.95156679  .00008336  00000+0  13141-2 0  9990", "line2": "2 34547  74.0316  88.6306 0016693 167.5365 192.6223 14.72476564886132"}}, "geometry": {"type": "Point", "coordinates": [-104.91891423053227, 32.03779934092432]}}, {"type": "Feature", "properties": {"norad_id": 34553, "name": "COSMOS 2251 DEB", "group": "cosmos-2251-debris", "lat": -11.845124910957438, "lon": 173.4738108316324, "alt_km": 705.3698316200162, "timestamp": "2025-12-20T14:38:02.363616+00:00", "meta": {"OBJECT_NAME": "COSMOS 2251 DEB", "OBJECT_ID": "1993-036UP", "EPOCH": "2025-12-19T07:38:57.477984", "MEAN_MOTION": 14.57779976, "ECCENTRICITY": 0.0019139, "INCLINATION": 74.0238, "RA_OF_ASC_NODE": 179.3741, "ARG_OF_PERICENTER": 256.193, "MEAN_ANOMALY": 158.8027, "EPHEMERIS_TYPE": 0, "CLASSIFICATION_TYPE": "U", "NORAD_CAT_ID": 34553, "ELEMENT_SET_NO": 999, "REV_AT_EPOCH": 88192, "BSTAR": 0.00076906, "MEAN_MOTION_DOT": 3.497e-05, "MEAN_MOTION_DDOT": 0}, "tle": {"line1": "1 34553U 93036UP  25353.31872081  .00003497  00000+0  76906-3 0  9992", "line2": "2 34553  74.0238 179.3741 0019139 256.1930 158.8027 14.57779976881928"}}, "geometry": {"type": "Point", "coordinates": [173.4738108316324, -11.845124910957438]}}, {"type": "Feature", "properties": {"norad_id": 34554, "name": "COSMOS 2251 DEB", "group": "cosmos-2251-debris", "lat": -66.43681937995997, "lon": 145.51217767278447, "alt_km": 772.965960794817, "timestamp": "2025-12-20T14:38:02.363626+00:00", "meta": {"OBJECT_NAME": "COSMOS 2251 DEB", "OBJECT_ID": "1993-036UQ", "EPOCH": "2025-12-20T05:48:54.109152", "MEAN_MOTION": 14.37952739, "ECCENTRICITY": 0.00233297, "INCLINATION": 74.0392, "RA_OF_ASC_NODE": 285.1768, "ARG_OF_PERICENTER": 346.0878, "MEAN_ANOMALY": 165.1635, "EPHEMERIS_TYPE": 0, "CLASSIFICATION_TYPE": "U", "NORAD_CAT_ID": 34554, "ELEMENT_SET_NO": 999, "REV_AT_EPOCH": 87863, "BSTAR": 0.0002418271, "MEAN_MOTION_DOT": 7.07e-06, "MEAN_MOTION_DDOT": 0}, "tle": {"line1": "1 34554U 93036UQ  25354.24229293  .00000707  00000+0  24183-3 0  9998", "line2": "2 34554  74.0392 285.1768 0023329 346.0878 165.1635 14.37952739878639"}}, "geometry": {"type": "Point", "coordinates": [145.51217767278447, -66.43681937995997]}}, {"type": "Feature", "properties": {"norad_id": 34556, "name": "COSMOS 2251 DEB", "group": "cosmos-2251-debris", "lat": 69.60881138658296, "lon": -121.066545767543, "alt_km": 626.5367121174977, "timestamp": "2025-12-20T14:38:02.363636+00:00", "meta": {"OBJECT_NAME": "COSMOS 2251 DEB", "OBJECT_ID": "1993-036US", "EPOCH": "2025-12-19T10:53:06.238752", "MEAN_MOTION": 14.77997047, "ECCENTRICITY": 0.0006967, "INCLINATION": 74.016, "RA_OF_ASC_NODE": 111.6585, "ARG_OF_PERICENTER": 172.0151, "MEAN_ANOMALY": 261.4473, "EPHEMERIS_TYPE": 0, "CLASSIFICATION_TYPE": "U", "NORAD_CAT_ID": 34556, "ELEMENT_SET_NO": 999, "REV_AT_EPOCH": 88428, "BSTAR": 0.0013856, "MEAN_MOTION_DOT": 9.984e-05, "MEAN_MOTION_DDOT": 0}, "tle": {"line1": "1 34556U 93036US  25353.45354443  .00009984  00000+0  13856-2 0  9998", "line2": "2 34556  74.0160 111.6585 0006967 172.0151 261.4473 14.77997047884287"}}, "geometry": {"type": "Point", "coordinates": [-121.066545767543, 69.60881138658296]}}, {"type": "Feature", "properties": {"norad_id": 34560, "name": "COSMOS 2251 DEB", "group": "cosmos-2251-debris", "lat": -14.835985417447173, "lon": -48.84355076189705, "alt_km": 648.3897096775099, "timestamp": "2025-12-20T14:38:02.363646+00:00", "meta": {"OBJECT_NAME": "COSMOS 2251 DEB", "OBJECT_ID": "1993-036UW", "EPOCH": "2025-12-20T03:08:10.171392", "MEAN_MOTION": 14.72311873, "ECCENTRICITY": 0.00141017, "INCLINATION": 74.017, "RA_OF_ASC_NODE": 127.7353, "ARG_OF_PERICENTER": 209.7771, "MEAN_ANOMALY": 327.3808, "EPHEMERIS_TYPE": 0, "CLASSIFICATION_TYPE": "U", "NORAD_CAT_ID": 34560, "ELEMENT_SET_NO": 999, "REV_AT_EPOCH": 88360, "BSTAR": 0.0012677918, "MEAN_MOTION_DOT": 8.005e-05, "MEAN_MOTION_DDOT": 0}, "tle": {"line1": "1 34560U 93036UW  25354.13067328  .00008005  00000+0  12678-2 0  9996", "line2": "2 34560  74.0170 127.7353 0014101 209.7771 327.3808 14.72311873883600"}}, "geometry": {"type": "Point", "coordinates": [-48.84355076189705, -14.835985417447173]}}, {"type": "Feature", "properties": {"norad_id": 34563, "name": "COSMOS 2251 DEB", "group": "cosmos-2251-debris", "lat": -45.22626112383638, "lon": 172.24683180065676, "alt_km": 734.8104288975865, "timestamp": "2025-12-20T14:38:02.363656+00:00", "meta": {"OBJECT_NAME": "COSMOS 2251 DEB", "OBJECT_ID": "1993-036UZ", "EPOCH": "2025-12-20T00:30:18.501408", "MEAN_MOTION": 14.46530475, "ECCENTRICITY": 0.00138969, "INCLINATION": 74.0369, "RA_OF_ASC_NODE": 190.1141, "ARG_OF_PERICENTER": 283.7366, "MEAN_ANOMALY": 204.2441, "EPHEMERIS_TYPE": 0, "CLASSIFICATION_TYPE": "U", "NORAD_CAT_ID": 34563, "ELEMENT_SET_NO": 999, "REV_AT_EPOCH": 88302, "BSTAR": 0.00029395545, "MEAN_MOTION_DOT": 1.033e-05, "MEAN_MOTION_DDOT": 0}, "tle": {"line1": "1 34563U 93036UZ  25354.02104747  .00001033  00000+0  29396-3 0  9994", "line2": "2 34563  74.0369 190.1141 0013896 283.7366 204.2441 14.46530475883028"}}, "geometry": {"type": "Point", "coordinates": [172.24683180065676, -45.22626112383638]}}, {"type": "Feature", "properties": {"norad_id": 34564, "name": "COSMOS 2251 DEB", "group": "cosmos-2251-debris", "lat": -67.3820664317967, "lon": -179.96234222478216, "alt_km": 752.5132239359436, "timestamp": "2025-12-20T14:38:02.363667+00:00", "meta": {"OBJECT_NAME": "COSMOS 2251 DEB", "OBJECT_ID": "1993-036VA", "EPOCH": "2025-12-20T02:20:50.785728", "MEAN_MOTION": 14.40701931, "ECCENTRICITY": 0.00192883, "INCLINATION": 74.0317, "RA_OF_ASC_NODE": 224.3984, "ARG_OF_PERICENTER": 327.262, "MEAN_ANOMALY": 185.0207, "EPHEMERIS_TYPE": 0, "CLASSIFICATION_TYPE": "U", "NORAD_CAT_ID": 34564, "ELEMENT_SET_NO": 999, "REV_AT_EPOCH": 88112, "BSTAR": 0.0001749587, "MEAN_MOTION_DOT": 5.33e-06, "MEAN_MOTION_DDOT": 0}, "tle": {"line1": "1 34564U 93036VA  25354.09781002  .00000533  00000+0  17496-3 0  9999", "line2": "2 34564  74.0317 224.3984 0019288 327.2620 185.0207 14.40701931881121"}}, "geometry": {"type": "Point", "coordinates": [-179.96234222478216, -67.3820664317967]}}, {"type": "Feature", "properties": {"norad_id": 34567, "name": "COSMOS 2251 DEB", "group": "cosmos-2251-debris", "lat": -38.66670693037629, "lon": -24.146485166549994, "alt_km": 764.6748768538346, "timestamp": "2025-12-20T14:38:02.363676+00:00", "meta": {"OBJECT_NAME": "COSMOS 2251 DEB", "OBJECT_ID": "1993-036VD", "EPOCH": "2025-12-19T21:18:12.319776", "MEAN_MOTION": 14.24023935, "ECCENTRICITY": 0.0074256, "INCLINATION": 74.0406, "RA_OF_ASC_NODE": 143.9154, "ARG_OF_PERICENTER": 216.6721, "MEAN_ANOMALY": 263.2898, "EPHEMERIS_TYPE": 0, "CLASSIFICATION_TYPE": "U", "NORAD_CAT_ID": 34567, "ELEMENT_SET_NO": 999, "REV_AT_EPOCH": 87226, "BSTAR": 0.00017425, "MEAN_MOTION_DOT": 3.86e-06, "MEAN_MOTION_DDOT": 0}, "tle": {"line1": "1 34567U 93036VD  25353.88764259  .00000386  00000+0  17425-3 0  9991", "line2": "2 34567  74.0406 143.9154 0074256 216.6721 263.2898 14.24023935872260"}}, "geometry": {"type": "Point", "coordinates": [-24.146485166549994, -38.66670693037629]}}, {"type": "Feature", "properties": {"norad_id": 34569, "name": "COSMOS 2251 DEB", "group": "cosmos-2251-debris", "lat": 46.23364872442567, "lon": -158.65009843950952, "alt_km": 715.2645007685842, "timestamp": "2025-12-20T14:38:02.363687+00:00", "meta": {"OBJECT_NAME": "COSMOS 2251 DEB", "OBJECT_ID": "1993-036VF", "EPOCH": "2025-12-19T00:14:44.283264", "MEAN_MOTION": 14.24767816, "ECCENTRICITY": 0.01575762, "INCLINATION": 73.9892, "RA_OF_ASC_NODE": 186.7976, "ARG_OF_PERICENTER": 13.7528, "MEAN_ANOMALY": 112.9889, "EPHEMERIS_TYPE": 0, "CLASSIFICATION_TYPE": "U", "NORAD_CAT_ID": 34569, "ELEMENT_SET_NO": 999, "REV_AT_EPOCH": 87057, "BSTAR": 0.00035668833, "MEAN_MOTION_DOT": 9.19e-06, "MEAN_MOTION_DDOT": 0}, "tle": {"line1": "1 34569U 93036VF  25353.01023476  .00000919  00000+0  35669-3 0  9999", "line2": "2 34569  73.9892 186.7976 0157576  13.7528 112.9889 14.24767816870579"}}, "geometry": {"type": "Point", "coordinates": [-158.65009843950952, 46.23364872442567]}}, {"type": "Feature", "properties": {"norad_id": 34570, "name": "COSMOS 2251 DEB", "group": "cosmos-2251-debris", "lat": -9.488112016854163, "lon": -158.1592959773373, "alt_km": 907.856038192017, "timestamp": "2025-12-20T14:38:02.363697+00:00", "meta": {"OBJECT_NAME": "COSMOS 2251 DEB", "OBJECT_ID": "1993-036VG", "EPOCH": "2025-12-17T14:47:22.949376", "MEAN_MOTION": 13.99827814, "ECCENTRICITY": 0.01902686, "INCLINATION": 73.9566, "RA_OF_ASC_NODE": 209.802, "ARG_OF_PERICENTER": 91.1991, "MEAN_ANOMALY": 301.5791, "EPHEMERIS_TYPE": 0, "CLASSIFICATION_TYPE": "U", "NORAD_CAT_ID": 34570, "ELEMENT_SET_NO": 999, "REV_AT_EPOCH": 85669, "BSTAR": 0.00040162603, "MEAN_MOTION_DOT": 6.66e-06, "MEAN_MOTION_DDOT": 0}, "tle": {"line1": "1 34570U 93036VG  25351.61623784  .00000666  00000+0  40163-3 0  9997", "line2": "2 34570  73.9566 209.8020 0190268  91.1991 301.5791 13.99827814856696"}}, "geometry": {"type": "Point", "coordinates": [-158.1592959773373, -9.488112016854163]}}]}